[
    {
        "Altitude(m)": 617710.6684554504,
        "Argument of Periapsis(deg)": 0.0,
        "Eccentricity": 0.0,
        "Inclination(deg)": 60.0,
        "Latitude(deg)": -41.102738094523914,
        "Longitude(deg)": -170.03343106841913,
        "Mean Anomaly(deg)": -49.09089999999999,
        "RAAN(deg)": 320.0,
        "Satellite Name": "Test1 1427",
        "Satellite Number": 1427,
        "Semi-Major Axis(m)": 6980739.136638005,
        "Time(s)": 0
    },
    {
        "Altitude(m)": 617517.9671041133,
        "Argument of Periapsis(deg)": 0.00010418945913296404,
        "Eccentricity": 0.0,
        "Inclination(deg)": 60.0,
        "Latitude(deg)": -40.63694566514748,
        "Longitude(deg)": -169.53663588761498,
        "Mean Anomaly(deg)": -48.470793854538144,
        "RAAN(deg)": 319.9995799508602,
        "Satellite Name": "Test1 1427",
        "Satellite Number": 1427,
        "Semi-Major Axis(m)": 6980739.136638005,
        "Time(s)": 10
    }
]